{
  "norad_id": 63257,
  "name": "ICEYE-X51",
  "history": [
    {
      "epoch": "2026-03-28T18:55:36.806016Z",
      "apogee_km": 565.5841601654529,
      "perigee_km": 562.7516997540288,
      "latitude_deg": 0.00010096277664707013,
      "longitude_deg": -126.9623077041727,
      "height_km": 566.6153994004981,
      "semi_major_axis_km": 6942.304929959741,
      "eccentricity": 0.000204,
      "inclination_deg": 97.7393,
      "raan_deg": 343.1451,
      "arg_perigee_deg": 64.7514,
      "mean_anomaly_deg": 295.3922,
      "mean_motion_rev_day": 15.00884366
    },
    {
      "epoch": "2026-03-29T04:31:37.879104Z",
      "apogee_km": 565.5617182232636,
      "perigee_km": 562.7334314874679,
      "latitude_deg": 6.528953497306291e-05,
      "longitude_deg": 89.03735569843576,
      "height_km": 566.6045305228769,
      "semi_major_axis_km": 6942.2845748553655,
      "eccentricity": 0.0002037,
      "inclination_deg": 97.7394,
      "raan_deg": 343.5435,
      "arg_perigee_deg": 65.1355,
      "mean_anomaly_deg": 295.0081,
      "mean_motion_rev_day": 15.00890967
    },
    {
      "epoch": "2026-03-30T01:19:39.883872Z",
      "apogee_km": 565.5386726899624,
      "perigee_km": 562.6951254928954,
      "latitude_deg": -3.4665997599103715e-05,
      "longitude_deg": 137.03786796835564,
      "height_km": 566.5559645170388,
      "semi_major_axis_km": 6942.253899091429,
      "eccentricity": 0.0002048,
      "inclination_deg": 97.7396,
      "raan_deg": 344.4066,
      "arg_perigee_deg": 64.4808,
      "mean_anomaly_deg": 295.6627,
      "mean_motion_rev_day": 15.00900915
    },
    {
      "epoch": "2026-03-30T01:19:39.884736Z",
      "apogee_km": 565.5383255772686,
      "perigee_km": 562.6954726055901,
      "latitude_deg": -2.9513205339639447e-05,
      "longitude_deg": 137.03786366201666,
      "height_km": 566.5561140896116,
      "semi_major_axis_km": 6942.253899091429,
      "eccentricity": 0.00020475,
      "inclination_deg": 97.7396,
      "raan_deg": 344.4066,
      "arg_perigee_deg": 64.4808,
      "mean_anomaly_deg": 295.6627,
      "mean_motion_rev_day": 15.00900915
    },
    {
      "epoch": "2026-03-30T17:19:41.839392Z",
      "apogee_km": 565.5612633871415,
      "perigee_km": 562.7088226501064,
      "latitude_deg": -6.243904652920263e-05,
      "longitude_deg": -102.9635944662417,
      "height_km": 566.5800822743009,
      "semi_major_axis_km": 6942.272043018624,
      "eccentricity": 0.00020544,
      "inclination_deg": 97.74,
      "raan_deg": 345.0704,
      "arg_perigee_deg": 64.833,
      "mean_anomaly_deg": 295.3106,
      "mean_motion_rev_day": 15.00895031
    },
    {
      "epoch": "2026-03-31T20:31:44.581440Z",
      "apogee_km": 565.5374013713927,
      "perigee_km": 562.7438288590702,
      "latitude_deg": -1.9991774888273456e-05,
      "longitude_deg": -150.96321946970647,
      "height_km": 566.6241970275565,
      "semi_major_axis_km": 6942.277615115231,
      "eccentricity": 0.0002012,
      "inclination_deg": 97.7402,
      "raan_deg": 346.1993,
      "arg_perigee_deg": 66.0056,
      "mean_anomaly_deg": 294.1378,
      "mean_motion_rev_day": 15.00893224
    },
    {
      "epoch": "2026-04-01T18:55:47.077248Z",
      "apogee_km": 565.5606549116692,
      "perigee_km": 562.7601321431202,
      "latitude_deg": -7.55981794094651e-05,
      "longitude_deg": -126.96407376110963,
      "height_km": 566.6430676435375,
      "semi_major_axis_km": 6942.297393527394,
      "eccentricity": 0.0002017,
      "inclination_deg": 97.7401,
      "raan_deg": 347.1288,
      "arg_perigee_deg": 66.0285,
      "mean_anomaly_deg": 294.1149,
      "mean_motion_rev_day": 15.0088681
    },
    {
      "epoch": "2026-04-02T18:55:49.998432Z",
      "apogee_km": 565.5637401442027,
      "perigee_km": 562.7423934610542,
      "latitude_deg": 1.5578119149797636e-05,
      "longitude_deg": -126.96583517593713,
      "height_km": 566.624941983804,
      "semi_major_axis_km": 6942.290066802628,
      "eccentricity": 0.0002032,
      "inclination_deg": 97.7401,
      "raan_deg": 348.1249,
      "arg_perigee_deg": 65.7375,
      "mean_anomaly_deg": 294.4061,
      "mean_motion_rev_day": 15.00889186
    },
    {
      "epoch": "2026-04-02T23:43:50.539296Z",
      "apogee_km": 565.5614489738309,
      "perigee_km": 562.7299695480315,
      "latitude_deg": 5.062681160853576e-05,
      "longitude_deg": 161.03397146054223,
      "height_km": 566.6139584510013,
      "semi_major_axis_km": 6942.2827092609305,
      "eccentricity": 0.00020393,
      "inclination_deg": 97.7401,
      "raan_deg": 348.3241,
      "arg_perigee_deg": 65.6695,
      "mean_anomaly_deg": 294.4742,
      "mean_motion_rev_day": 15.00891572
    },
    {
      "epoch": "2026-04-03T18:55:52.185216Z",
      "apogee_km": 565.5388722195939,
      "perigee_km": 562.668949826977,
      "latitude_deg": 5.3466383302959264e-05,
      "longitude_deg": -126.96492173248768,
      "height_km": 566.5652036378655,
      "semi_major_axis_km": 6942.240911023286,
      "eccentricity": 0.0002067,
      "inclination_deg": 97.74,
      "raan_deg": 349.1206,
      "arg_perigee_deg": 65.7128,
      "mean_anomaly_deg": 294.4312,
      "mean_motion_rev_day": 15.00905127
    },
    {
      "epoch": "2026-04-04T18:55:53.913216Z",
      "apogee_km": 565.5151183074131,
      "perigee_km": 562.6882387175228,
      "latitude_deg": -3.832233026013153e-05,
      "longitude_deg": -126.96187478024459,
      "height_km": 566.601595999124,
      "semi_major_axis_km": 6942.238678512467,
      "eccentricity": 0.0002036,
      "inclination_deg": 97.74,
      "raan_deg": 350.1165,
      "arg_perigee_deg": 67.0284,
      "mean_anomaly_deg": 293.1154,
      "mean_motion_rev_day": 15.00905851
    },
    {
      "epoch": "2026-04-05T14:07:55.098624Z",
      "apogee_km": 565.4898430749427,
      "perigee_km": 562.6719968212356,
      "latitude_deg": -4.47646512659471e-05,
      "longitude_deg": -54.958743869138864,
      "height_km": 566.5790219558776,
      "semi_major_axis_km": 6942.217919948089,
      "eccentricity": 0.00020295,
      "inclination_deg": 97.74,
      "raan_deg": 350.9131,
      "arg_perigee_deg": 66.8692,
      "mean_anomaly_deg": 293.2745,
      "mean_motion_rev_day": 15.00912583
    },
    {
      "epoch": "2026-04-05T18:55:55.338816Z",
      "apogee_km": 565.4844939930754,
      "perigee_km": 562.6645676692515,
      "latitude_deg": 5.2745063840538715e-05,
      "longitude_deg": -126.95768994348273,
      "height_km": 566.5702861724137,
      "semi_major_axis_km": 6942.211530831163,
      "eccentricity": 0.0002031,
      "inclination_deg": 97.74,
      "raan_deg": 351.1123,
      "arg_perigee_deg": 66.7841,
      "mean_anomaly_deg": 293.3597,
      "mean_motion_rev_day": 15.00914655
    },
    {
      "epoch": "2026-04-06T06:07:56.516736Z",
      "apogee_km": 565.5318448847884,
      "perigee_km": 562.77853180289,
      "latitude_deg": -8.045924818587498e-06,
      "longitude_deg": 65.04222816820842,
      "height_km": 566.7190088398239,
      "semi_major_axis_km": 6942.2921883438385,
      "eccentricity": 0.0001983,
      "inclination_deg": 97.7399,
      "raan_deg": 351.5771,
      "arg_perigee_deg": 69.2494,
      "mean_anomaly_deg": 290.8942,
      "mean_motion_rev_day": 15.00888498
    }
  ]
}